{"spkid": "20612522", "covariance": {"epoch": "2459243.5", "data": [["6.676364397782452E-16", "-1.349667989130347E-15", "5.262159870786381E-14", "-7.712734079026444E-14", "1.75497772892802E-13", "-9.647838051153504E-16"], ["-1.349667989130347E-15", "2.728787035378329E-15", "-1.055674557578133E-13", "1.540571875060757E-13", "-3.526065138325207E-13", "1.836834674684379E-15"], ["5.262159870786381E-14", "-1.055674557578133E-13", "5.418133447024508E-11", "-2.289988371013973E-11", "6.624701177999747E-11", "1.69281832848061E-12"], ["-7.712734079026444E-14", "1.540571875060757E-13", "-2.289988371013973E-11", "5.267580545938917E-10", "-5.266803797704107E-10", "-1.51817959944412E-11"], ["1.75497772892802E-13", "-3.526065138325207E-13", "6.624701177999747E-11", "-5.266803797704107E-10", "5.776918762926334E-10", "1.705779098621598E-11"], ["-9.647838051153504E-16", "1.836834674684379E-15", "1.69281832848061E-12", "-1.51817959944412E-11", "1.705779098621598E-11", "1.179384328133399E-11"]], "elements": [{"label": "e", "value": ".5283238785724498", "title": "eccentricity", "units": null, "name": "e", "sigma": 2.58386617257598e-08}, {"label": "q", "title": "perihelion distance", "value": ".9520936669981063", "units": "au", "name": "q", "sigma": 5.22377931710206e-08}, {"label": "tp", "units": "TDB", "value": "2458960.096284405498", "title": "time of perihelion passage", "sigma": 7.36079713551767e-06, "name": "tp"}, {"name": "om", "sigma": 2.29512103078224e-05, "units": "deg", "title": "longitude of the ascending node", "value": "306.9400629123898", "label": "node"}, {"label": "peri", "name": "w", "sigma": 2.40352215777728e-05, "title": "argument of perihelion", "value": "188.7769497699446", "units": "deg"}, {"label": "i", "name": "i", "sigma": 3.43421654549243e-06, "title": "inclination", "value": "10.15737278237678", "units": "deg"}], "labels": ["e", "q", "tp", "node", "peri", "i"]}, "elements": [{"units": null, "title": "eccentricity", "value": ".5270505297367982", "name": "e", "sigma": "2.5977E-8", "label": "e"}, {"label": "a", "title": "semi-major axis", "value": "2.018828880328052", "units": "au", "name": "a", "sigma": "1.1964E-9"}, {"units": "au", "title": "perihelion distance", "value": ".954804049503205", "name": "q", "sigma": "5.2591E-8", "label": "q"}, {"label": "i", "sigma": "3.4224E-6", "name": "i", "value": "10.12317663869229", "title": "inclination; angle with respect to x-y ecliptic plane", "units": "deg"}, {"label": "node", "units": "deg", "title": "longitude of the ascending node", "value": "306.8225956276593", "name": "om", "sigma": "2.3061E-5"}, {"label": "peri", "title": "argument of perihelion", "value": "189.0504333574909", "units": "deg", "sigma": "2.4156E-5", "name": "w"}, {"name": "ma", "sigma": "2.6658E-6", "title": "mean anomaly", "value": "49.08612553689023", "units": "deg", "label": "M"}, {"label": "tp", "name": "tp", "sigma": "7.7585E-6", "value": "2461057.642204781447", "title": "time of perihelion passage", "units": "TDB"}, {"label": "period", "units": "d", "title": "sidereal orbital period", "value": "1047.72592491596", "sigma": "9.3138E-7", "name": "per"}, {"units": "deg/d", "title": "mean motion", "value": ".3436013096925861", "name": "n", "sigma": "3.0545E-10", "label": "n"}, {"name": "ad", "sigma": "1.827E-9", "value": "3.082853711152899", "title": "aphelion distance", "units": "au", "label": "Q"}], "epoch": "2461200.5"}